{
  "type": "FeatureCollection",
  "features": [
    {
      "type": "Feature",
      "properties": {
        "norad_id": 40794,
        "name": "COSMOS 2251 DEB",
        "group": "cosmos-2251-debris",
        "lat": -46.10084162022865,
        "lon": -51.93002846549869,
        "alt_km": 585.6435251101057,
        "timestamp": "2025-12-19T10:50:01.600042+00:00",
        "meta_object_name": "COSMOS 2251 DEB",
        "meta_object_id": "1993-036BVX",
        "meta_epoch": "2025-12-13T15:37:41.141568",
        "meta_mean_motion": 14.93159868,
        "meta_eccentricity": 0.00107848,
        "meta_inclination": 73.9763,
        "meta_ra_of_asc_node": 122.399,
        "meta_arg_of_pericenter": 261.0962,
        "meta_mean_anomaly": 116.104,
        "meta_ephemeris_type": 0,
        "meta_classification_type": "U",
        "meta_norad_cat_id": 40794,
        "meta_element_set_no": 999,
        "meta_rev_at_epoch": 61938,
        "meta_bstar": 0.0047306735,
        "meta_mean_motion_dot": 0.00049759,
        "meta_mean_motion_ddot": 0,
        "tle_line1": "1 40794U 93036BVX 25347.65117062  .00049759  00000+0  47307-2 0  9990",
        "tle_line2": "2 40794  73.9763 122.3990 0010784 261.0962 116.1040 14.93159868619387"
      },
      "geometry": {
        "type": "Point",
        "coordinates": [
          -51.93002846549869,
          -46.10084162022865
        ]
      }
    },
    {
      "type": "Feature",
      "properties": {
        "norad_id": 40796,
        "name": "COSMOS 2251 DEB",
        "group": "cosmos-2251-debris",
        "lat": -11.719731513992354,
        "lon": 125.50327747519994,
        "alt_km": 623.1614655680578,
        "timestamp": "2025-12-19T10:50:01.600052+00:00",
        "meta_object_name": "COSMOS 2251 DEB",
        "meta_object_id": "1993-036BVZ",
        "meta_epoch": "2025-12-18T03:16:26.396832",
        "meta_mean_motion": 14.81774084,
        "meta_eccentricity": 0.00561198,
        "meta_inclination": 74.0119,
        "meta_ra_of_asc_node": 131.5134,
        "meta_arg_of_pericenter": 267.2185,
        "meta_mean_anomaly": 268.2913,
        "meta_ephemeris_type": 0,
        "meta_classification_type": "U",
        "meta_norad_cat_id": 40796,
        "meta_element_set_no": 999,
        "meta_rev_at_epoch": 76238,
        "meta_bstar": 0.00073722049,
        "meta_mean_motion_dot": 5.947e-05,
        "meta_mean_motion_ddot": 0,
        "tle_line1": "1 40796U 93036BVZ 25352.13641663  .00005947  00000+0  73722-3 0  9992",
        "tle_line2": "2 40796  74.0119 131.5134 0056119 267.2185 268.2913 14.81774084762382"
      },
      "geometry": {
        "type": "Point",
        "coordinates": [
          125.50327747519994,
          -11.719731513992354
        ]
      }
    },
    {
      "type": "Feature",
      "properties": {
        "norad_id": 40797,
        "name": "COSMOS 2251 DEB",
        "group": "cosmos-2251-debris",
        "lat": 49.58220686918807,
        "lon": 101.11981267966553,
        "alt_km": 502.43540027371546,
        "timestamp": "2025-12-19T10:50:01.600062+00:00",
        "meta_object_name": "COSMOS 2251 DEB",
        "meta_object_id": "1993-036BWA",
        "meta_epoch": "2025-12-18T12:21:56.405088",
        "meta_mean_motion": 15.11435763,
        "meta_eccentricity": 0.00720493,
        "meta_inclination": 73.9224,
        "meta_ra_of_asc_node": 83.2734,
        "meta_arg_of_pericenter": 353.7409,
        "meta_mean_anomaly": 6.2874,
        "meta_ephemeris_type": 0,
        "meta_classification_type": "U",
        "meta_norad_cat_id": 40797,
        "meta_element_set_no": 999,
        "meta_rev_at_epoch": 64731,
        "meta_bstar": 0.00063352099,
        "meta_mean_motion_dot": 0.00011373,
        "meta_mean_motion_ddot": 0,
        "tle_line1": "1 40797U 93036BWA 25352.51523617  .00011373  00000+0  63352-3 0  9991",
        "tle_line2": "2 40797  73.9224  83.2734 0072049 353.7409   6.2874 15.11435763647310"
      },
      "geometry": {
        "type": "Point",
        "coordinates": [
          101.11981267966553,
          49.58220686918807
        ]
      }
    },
    {
      "type": "Feature",
      "properties": {
        "norad_id": 40799,
        "name": "COSMOS 2251 DEB",
        "group": "cosmos-2251-debris",
        "lat": 60.60328141983157,
        "lon": 115.48305282253645,
        "alt_km": 584.1521389922318,
        "timestamp": "2025-12-19T10:50:01.600072+00:00",
        "meta_object_name": "COSMOS 2251 DEB",
        "meta_object_id": "1993-036BWC",
        "meta_epoch": "2025-12-16T13:34:01.060320",
        "meta_mean_motion": 14.96697184,
        "meta_eccentricity": 0.01191597,
        "meta_inclination": 73.9265,
        "meta_ra_of_asc_node": 90.5746,
        "meta_arg_of_pericenter": 331.7111,
        "meta_mean_anomaly": 27.7633,
        "meta_ephemeris_type": 0,
        "meta_classification_type": "U",
        "meta_norad_cat_id": 40799,
        "meta_element_set_no": 999,
        "meta_rev_at_epoch": 50034,
        "meta_bstar": 0.00030724083,
        "meta_mean_motion_dot": 4.009e-05,
        "meta_mean_motion_ddot": 0,
        "tle_line1": "1 40799U 93036BWC 25350.56529005  .00004009  00000+0  30724-3 0  9998",
        "tle_line2": "2 40799  73.9265  90.5746 0119159 331.7111  27.7633 14.96697184500342"
      },
      "geometry": {
        "type": "Point",
        "coordinates": [
          115.48305282253645,
          60.60328141983157
        ]
      }
    },
    {
      "type": "Feature",
      "properties": {
        "norad_id": 40802,
        "name": "COSMOS 2251 DEB",
        "group": "cosmos-2251-debris",
        "lat": 10.617786044618343,
        "lon": 142.9206798039416,
        "alt_km": 668.3922852395708,
        "timestamp": "2025-12-19T10:50:01.600083+00:00",
        "meta_object_name": "COSMOS 2251 DEB",
        "meta_object_id": "1993-036BWF",
        "meta_epoch": "2025-12-17T16:32:13.649568",
        "meta_mean_motion": 14.77662029,
        "meta_eccentricity": 0.00629965,
        "meta_inclination": 74.0395,
        "meta_ra_of_asc_node": 143.3018,
        "meta_arg_of_pericenter": 241.0781,
        "meta_mean_anomaly": 118.4067,
        "meta_ephemeris_type": 0,
        "meta_classification_type": "U",
        "meta_norad_cat_id": 40802,
        "meta_element_set_no": 999,
        "meta_rev_at_epoch": 64482,
        "meta_bstar": 0.00061564393,
        "meta_mean_motion_dot": 4.522e-05,
        "meta_mean_motion_ddot": 0,
        "tle_line1": "1 40802U 93036BWF 25351.68904687  .00004522  00000+0  61564-3 0  9996",
        "tle_line2": "2 40802  74.0395 143.3018 0062996 241.0781 118.4067 14.77662029644824"
      },
      "geometry": {
        "type": "Point",
        "coordinates": [
          142.9206798039416,
          10.617786044618343
        ]
      }
    },
    {
      "type": "Feature",
      "properties": {
        "norad_id": 40803,
        "name": "COSMOS 2251 DEB",
        "group": "cosmos-2251-debris",
        "lat": -47.259336273998386,
        "lon": 21.171840289391092,
        "alt_km": 712.0075111732667,
        "timestamp": "2025-12-19T10:50:01.600093+00:00",
        "meta_object_name": "COSMOS 2251 DEB",
        "meta_object_id": "1993-036BWG",
        "meta_epoch": "2025-12-05T22:55:29.451072",
        "meta_mean_motion": 14.51792027,
        "meta_eccentricity": 0.00362816,
        "meta_inclination": 74.0122,
        "meta_ra_of_asc_node": 64.6912,
        "meta_arg_of_pericenter": 281.8159,
        "meta_mean_anomaly": 77.8934,
        "meta_ephemeris_type": 0,
        "meta_classification_type": "U",
        "meta_norad_cat_id": 40803,
        "meta_element_set_no": 999,
        "meta_rev_at_epoch": 58654,
        "meta_bstar": 0.00062935795,
        "meta_mean_motion_dot": 2.525e-05,
        "meta_mean_motion_ddot": 0,
        "tle_line1": "1 40803U 93036BWG 25339.95520198  .00002525  00000+0  62936-3 0  9999",
        "tle_line2": "2 40803  74.0122  64.6912 0036281 281.8159  77.8934 14.51792027586549"
      },
      "geometry": {
        "type": "Point",
        "coordinates": [
          21.171840289391092,
          -47.259336273998386
        ]
      }
    },
    {
      "type": "Feature",
      "properties": {
        "norad_id": 40808,
        "name": "COSMOS 2251 DEB",
        "group": "cosmos-2251-debris",
        "lat": -59.60303192867822,
        "lon": -18.288945826979447,
        "alt_km": 673.9725038128272,
        "timestamp": "2025-12-19T10:50:01.600103+00:00",
        "meta_object_name": "COSMOS 2251 DEB",
        "meta_object_id": "1993-036BWM",
        "meta_epoch": "2025-12-18T11:05:09.828384",
        "meta_mean_motion": 14.67577712,
        "meta_eccentricity": 0.00086916,
        "meta_inclination": 74.0411,
        "meta_ra_of_asc_node": 134.4242,
        "meta_arg_of_pericenter": 170.7227,
        "meta_mean_anomaly": 247.3074,
        "meta_ephemeris_type": 0,
        "meta_classification_type": "U",
        "meta_norad_cat_id": 40808,
        "meta_element_set_no": 999,
        "meta_rev_at_epoch": 63703,
        "meta_bstar": 0.0013644705,
        "meta_mean_motion_dot": 7.729e-05,
        "meta_mean_motion_ddot": 0,
        "tle_line1": "1 40808U 93036BWM 25352.46191931  .00007729  00000+0  13645-2 0  9997",
        "tle_line2": "2 40808  74.0411 134.4242 0008691 170.7227 247.3074 14.67577712637032"
      },
      "geometry": {
        "type": "Point",
        "coordinates": [
          -18.288945826979447,
          -59.60303192867822
        ]
      }
    }
  ]
}